KUIPER-00053            
1 64513U 25134P   25198.45771274  .00028761  00000+0  80899-3 0  9996
2 64513  51.8779 215.1061 0001920 201.6135 158.4771 15.36259948  4474
KUIPER-00054            
1 64514U 25134Q   25198.46099330  .00019643  00000+0  55941-3 0  9993
2 64514  51.8757 215.1277 0002897 175.7990 184.3021 15.36098973  4873
KUIPER-00055            
1 64515U 25134R   25198.25579021  .00024978  00000+0  69477-3 0  9997
2 64515  51.8772 216.0029 0000643  73.9063 286.1995 15.36686912  4904
KUIPER-00056            
1 64516U 25134S   25198.46407724  .00033233  00000+0  94607-3 0  9998
2 64516  51.8732 215.1490 0002971 180.8605 179.2377 15.35808241  4477
KUIPER-00057            
1 64517U 25134T   25198.34645444  .00020984  00000+0  61876-3 0  9990
2 64517  51.8693 215.8496 0006680 189.5206 170.5654 15.34947621  4917
KUIPER-00058            
1 64518U 25134U   25198.27442606  .00015253  00000+0  44489-3 0  9992
2 64518  51.8708 216.1239 0004594 191.5170 168.5712 15.35535959  4447
KUIPER-00059            
1 64519U 25134V   25198.25723094  .00029383  00000+0  81488-3 0  9993
2 64519  51.8764 216.0086 0001153 108.5709 251.5403 15.36689836  4437
KUIPER-00060            
1 64520U 25134W   25198.45589399  .00025549  00000+0  71630-3 0  9993
2 64520  51.8768 215.0951 0002055 153.4150 206.6942 15.36426661  4472
